<?xml version="1.0" encoding="UTF-8"?>
<ndm xmlns:xsi="http://www.w3.org/2001/XMLSchema-instance" xsi:noNamespaceSchemaLocation="https://sanaregistry.org/r/ndmxml_unqualified/ndmxml-2.0.0-master-2.0.xsd">
<omm id="CCSDS_OMM_VERS" version="2.0">
<header><CREATION_DATE/><ORIGINATOR/></header><body><segment><metadata><OBJECT_NAME>ORBCOMM FM103</OBJECT_NAME><OBJECT_ID>2014-040F</OBJECT_ID><CENTER_NAME>EARTH</CENTER_NAME><REF_FRAME>TEME</REF_FRAME><TIME_SYSTEM>UTC</TIME_SYSTEM><MEAN_ELEMENT_THEORY>SGP4</MEAN_ELEMENT_THEORY></metadata><data><meanElements><EPOCH>2024-10-06T20:51:47.189952</EPOCH><MEAN_MOTION>14.57180963</MEAN_MOTION><ECCENTRICITY>.0002386</ECCENTRICITY><INCLINATION>47.0032</INCLINATION><RA_OF_ASC_NODE>133.3592</RA_OF_ASC_NODE><ARG_OF_PERICENTER>207.9897</ARG_OF_PERICENTER><MEAN_ANOMALY>152.0860</MEAN_ANOMALY></meanElements><tleParameters><EPHEMERIS_TYPE>0</EPHEMERIS_TYPE><CLASSIFICATION_TYPE>U</CLASSIFICATION_TYPE><NORAD_CAT_ID>40091</NORAD_CAT_ID><ELEMENT_SET_NO>999</ELEMENT_SET_NO><REV_AT_EPOCH>52714</REV_AT_EPOCH><BSTAR>.87435E-3</BSTAR><MEAN_MOTION_DOT>.3818E-4</MEAN_MOTION_DOT><MEAN_MOTION_DDOT>0</MEAN_MOTION_DDOT></tleParameters></data></segment></body></omm>
<omm id="CCSDS_OMM_VERS" version="2.0">
<header><CREATION_DATE/><ORIGINATOR/></header><body><segment><metadata><OBJECT_NAME>ORBCOMM FM114</OBJECT_NAME><OBJECT_ID>2015-081A</OBJECT_ID><CENTER_NAME>EARTH</CENTER_NAME><REF_FRAME>TEME</REF_FRAME><TIME_SYSTEM>UTC</TIME_SYSTEM><MEAN_ELEMENT_THEORY>SGP4</MEAN_ELEMENT_THEORY></metadata><data><meanElements><EPOCH>2024-10-06T19:55:41.243808</EPOCH><MEAN_MOTION>14.57162076</MEAN_MOTION><ECCENTRICITY>.00032</ECCENTRICITY><INCLINATION>47.0027</INCLINATION><RA_OF_ASC_NODE>42.7401</RA_OF_ASC_NODE><ARG_OF_PERICENTER>264.4325</ARG_OF_PERICENTER><MEAN_ANOMALY>95.6196</MEAN_ANOMALY></meanElements><tleParameters><EPHEMERIS_TYPE>0</EPHEMERIS_TYPE><CLASSIFICATION_TYPE>U</CLASSIFICATION_TYPE><NORAD_CAT_ID>41179</NORAD_CAT_ID><ELEMENT_SET_NO>999</ELEMENT_SET_NO><REV_AT_EPOCH>46750</REV_AT_EPOCH><BSTAR>.12759E-2</BSTAR><MEAN_MOTION_DOT>.5649E-4</MEAN_MOTION_DOT><MEAN_MOTION_DDOT>0</MEAN_MOTION_DDOT></tleParameters></data></segment></body></omm>
<omm id="CCSDS_OMM_VERS" version="2.0">
<header><CREATION_DATE/><ORIGINATOR/></header><body><segment><metadata><OBJECT_NAME>ORBCOMM FM119</OBJECT_NAME><OBJECT_ID>2015-081B</OBJECT_ID><CENTER_NAME>EARTH</CENTER_NAME><REF_FRAME>TEME</REF_FRAME><TIME_SYSTEM>UTC</TIME_SYSTEM><MEAN_ELEMENT_THEORY>SGP4</MEAN_ELEMENT_THEORY></metadata><data><meanElements><EPOCH>2024-10-06T19:21:03.084480</EPOCH><MEAN_MOTION>14.57158390</MEAN_MOTION><ECCENTRICITY>.0002065</ECCENTRICITY><INCLINATION>47.0002</INCLINATION><RA_OF_ASC_NODE>312.0835</RA_OF_ASC_NODE><ARG_OF_PERICENTER>310.4246</ARG_OF_PERICENTER><MEAN_ANOMALY>49.6458</MEAN_ANOMALY></meanElements><tleParameters><EPHEMERIS_TYPE>0</EPHEMERIS_TYPE><CLASSIFICATION_TYPE>U</CLASSIFICATION_TYPE><NORAD_CAT_ID>41180</NORAD_CAT_ID><ELEMENT_SET_NO>999</ELEMENT_SET_NO><REV_AT_EPOCH>46875</REV_AT_EPOCH><BSTAR>.85779E-3</BSTAR><MEAN_MOTION_DOT>.3741E-4</MEAN_MOTION_DOT><MEAN_MOTION_DDOT>0</MEAN_MOTION_DDOT></tleParameters></data></segment></body></omm>
<omm id="CCSDS_OMM_VERS" version="2.0">
<header><CREATION_DATE/><ORIGINATOR/></header><body><segment><metadata><OBJECT_NAME>ORBCOMM FM105</OBJECT_NAME><OBJECT_ID>2015-081C</OBJECT_ID><CENTER_NAME>EARTH</CENTER_NAME><REF_FRAME>TEME</REF_FRAME><TIME_SYSTEM>UTC</TIME_SYSTEM><MEAN_ELEMENT_THEORY>SGP4</MEAN_ELEMENT_THEORY></metadata><data><meanElements><EPOCH>2024-10-06T17:45:41.863968</EPOCH><MEAN_MOTION>14.44701405</MEAN_MOTION><ECCENTRICITY>.0002637</ECCENTRICITY><INCLINATION>47.0015</INCLINATION><RA_OF_ASC_NODE>293.0908</RA_OF_ASC_NODE><ARG_OF_PERICENTER>270.9741</ARG_OF_PERICENTER><MEAN_ANOMALY>89.0837</MEAN_ANOMALY></meanElements><tleParameters><EPHEMERIS_TYPE>0</EPHEMERIS_TYPE><CLASSIFICATION_TYPE>U</CLASSIFICATION_TYPE><NORAD_CAT_ID>41181</NORAD_CAT_ID><ELEMENT_SET_NO>999</ELEMENT_SET_NO><REV_AT_EPOCH>46409</REV_AT_EPOCH><BSTAR>.61509E-3</BSTAR><MEAN_MOTION_DOT>.1995E-4</MEAN_MOTION_DOT><MEAN_MOTION_DDOT>0</MEAN_MOTION_DDOT></tleParameters></data></segment></body></omm>
<omm id="CCSDS_OMM_VERS" version="2.0">
<header><CREATION_DATE/><ORIGINATOR/></header><body><segment><metadata><OBJECT_NAME>ORBCOMM FM110</OBJECT_NAME><OBJECT_ID>2015-081D</OBJECT_ID><CENTER_NAME>EARTH</CENTER_NAME><REF_FRAME>TEME</REF_FRAME><TIME_SYSTEM>UTC</TIME_SYSTEM><MEAN_ELEMENT_THEORY>SGP4</MEAN_ELEMENT_THEORY></metadata><data><meanElements><EPOCH>2024-10-06T17:42:44.552160</EPOCH><MEAN_MOTION>14.57144586</MEAN_MOTION><ECCENTRICITY>.0000391</ECCENTRICITY><INCLINATION>47.0023</INCLINATION><RA_OF_ASC_NODE>42.5597</RA_OF_ASC_NODE><ARG_OF_PERICENTER>14.4831</ARG_OF_PERICENTER><MEAN_ANOMALY>345.6065</MEAN_ANOMALY></meanElements><tleParameters><EPHEMERIS_TYPE>0</EPHEMERIS_TYPE><CLASSIFICATION_TYPE>U</CLASSIFICATION_TYPE><NORAD_CAT_ID>41182</NORAD_CAT_ID><ELEMENT_SET_NO>999</ELEMENT_SET_NO><REV_AT_EPOCH>46736</REV_AT_EPOCH><BSTAR>.12189E-2</BSTAR><MEAN_MOTION_DOT>.5387E-4</MEAN_MOTION_DOT><MEAN_MOTION_DDOT>0</MEAN_MOTION_DDOT></tleParameters></data></segment></body></omm>
<omm id="CCSDS_OMM_VERS" version="2.0">
<header><CREATION_DATE/><ORIGINATOR/></header><body><segment><metadata><OBJECT_NAME>ORBCOMM FM118</OBJECT_NAME><OBJECT_ID>2015-081E</OBJECT_ID><CENTER_NAME>EARTH</CENTER_NAME><REF_FRAME>TEME</REF_FRAME><TIME_SYSTEM>UTC</TIME_SYSTEM><MEAN_ELEMENT_THEORY>SGP4</MEAN_ELEMENT_THEORY></metadata><data><meanElements><EPOCH>2024-10-06T18:49:55.926912</EPOCH><MEAN_MOTION>14.57152882</MEAN_MOTION><ECCENTRICITY>.0000639</ECCENTRICITY><INCLINATION>47.0043</INCLINATION><RA_OF_ASC_NODE>42.6852</RA_OF_ASC_NODE><ARG_OF_PERICENTER>44.2096</ARG_OF_PERICENTER><MEAN_ANOMALY>315.8840</MEAN_ANOMALY></meanElements><tleParameters><EPHEMERIS_TYPE>0</EPHEMERIS_TYPE><CLASSIFICATION_TYPE>U</CLASSIFICATION_TYPE><NORAD_CAT_ID>41183</NORAD_CAT_ID><ELEMENT_SET_NO>999</ELEMENT_SET_NO><REV_AT_EPOCH>46747</REV_AT_EPOCH><BSTAR>.12153E-2</BSTAR><MEAN_MOTION_DOT>.5371E-4</MEAN_MOTION_DOT><MEAN_MOTION_DDOT>0</MEAN_MOTION_DDOT></tleParameters></data></segment></body></omm>
<omm id="CCSDS_OMM_VERS" version="2.0">
<header><CREATION_DATE/><ORIGINATOR/></header><body><segment><metadata><OBJECT_NAME>ORBCOMM FM112</OBJECT_NAME><OBJECT_ID>2015-081F</OBJECT_ID><CENTER_NAME>EARTH</CENTER_NAME><REF_FRAME>TEME</REF_FRAME><TIME_SYSTEM>UTC</TIME_SYSTEM><MEAN_ELEMENT_THEORY>SGP4</MEAN_ELEMENT_THEORY></metadata><data><meanElements><EPOCH>2024-10-06T18:48:42.443712</EPOCH><MEAN_MOTION>14.57149588</MEAN_MOTION><ECCENTRICITY>.0002574</ECCENTRICITY><INCLINATION>46.9986</INCLINATION><RA_OF_ASC_NODE>311.3870</RA_OF_ASC_NODE><ARG_OF_PERICENTER>299.7690</ARG_OF_PERICENTER><MEAN_ANOMALY>60.2938</MEAN_ANOMALY></meanElements><tleParameters><EPHEMERIS_TYPE>0</EPHEMERIS_TYPE><CLASSIFICATION_TYPE>U</CLASSIFICATION_TYPE><NORAD_CAT_ID>41184</NORAD_CAT_ID><ELEMENT_SET_NO>999</ELEMENT_SET_NO><REV_AT_EPOCH>46869</REV_AT_EPOCH><BSTAR>.10223E-2</BSTAR><MEAN_MOTION_DOT>.449E-4</MEAN_MOTION_DOT><MEAN_MOTION_DDOT>0</MEAN_MOTION_DDOT></tleParameters></data></segment></body></omm>
<omm id="CCSDS_OMM_VERS" version="2.0">
<header><CREATION_DATE/><ORIGINATOR/></header><body><segment><metadata><OBJECT_NAME>ORBCOMM FM113</OBJECT_NAME><OBJECT_ID>2015-081G</OBJECT_ID><CENTER_NAME>EARTH</CENTER_NAME><REF_FRAME>TEME</REF_FRAME><TIME_SYSTEM>UTC</TIME_SYSTEM><MEAN_ELEMENT_THEORY>SGP4</MEAN_ELEMENT_THEORY></metadata><data><meanElements><EPOCH>2024-10-06T19:54:22.872960</EPOCH><MEAN_MOTION>14.57138789</MEAN_MOTION><ECCENTRICITY>.0002223</ECCENTRICITY><INCLINATION>47.0002</INCLINATION><RA_OF_ASC_NODE>311.4608</RA_OF_ASC_NODE><ARG_OF_PERICENTER>313.5375</ARG_OF_PERICENTER><MEAN_ANOMALY>46.5325</MEAN_ANOMALY></meanElements><tleParameters><EPHEMERIS_TYPE>0</EPHEMERIS_TYPE><CLASSIFICATION_TYPE>U</CLASSIFICATION_TYPE><NORAD_CAT_ID>41185</NORAD_CAT_ID><ELEMENT_SET_NO>999</ELEMENT_SET_NO><REV_AT_EPOCH>46868</REV_AT_EPOCH><BSTAR>.88784E-3</BSTAR><MEAN_MOTION_DOT>.3876E-4</MEAN_MOTION_DOT><MEAN_MOTION_DDOT>0</MEAN_MOTION_DDOT></tleParameters></data></segment></body></omm>

</ndm>
