ORBCOMM FM103           
1 40091U 14040F   24280.86929618  .00003818  00000+0  87435-3 0  9997
2 40091  47.0032 133.3592 0002386 207.9897 152.0860 14.57180963527144
ORBCOMM FM114           
1 41179U 15081A   24280.83033847  .00005649  00000+0  12759-2 0  9998
2 41179  47.0027  42.7401 0003200 264.4325  95.6196 14.57162076467500
ORBCOMM FM119           
1 41180U 15081B   24280.80628570  .00003741  00000+0  85779-3 0  9994
2 41180  47.0002 312.0835 0002065 310.4246  49.6458 14.57158390468753
ORBCOMM FM105           
1 41181U 15081C   24280.74006787  .00001995  00000+0  61509-3 0  9992
2 41181  47.0015 293.0908 0002637 270.9741  89.0837 14.44701405464091
ORBCOMM FM110           
1 41182U 15081D   24280.73801565  .00005387  00000+0  12189-2 0  9997
2 41182  47.0023  42.5597 0000391  14.4831 345.6065 14.57144586467360
ORBCOMM FM118           
1 41183U 15081E   24280.78467508  .00005371  00000+0  12153-2 0  9992
2 41183  47.0043  42.6852 0000639  44.2096 315.8840 14.57152882467477
ORBCOMM FM112           
1 41184U 15081F   24280.78382458  .00004490  00000+0  10223-2 0  9990
2 41184  46.9986 311.3870 0002574 299.7690  60.2938 14.57149588468698
ORBCOMM FM113           
1 41185U 15081G   24280.82943140  .00003876  00000+0  88784-3 0  9992
2 41185  47.0002 311.4608 0002223 313.5375  46.5325 14.57138789468683
